{"type": "FeatureCollection", "features": [ {"type": "Feature", "properties": {"norad_id": 29963, "name": "FENGYUN 1C DEB", "group": "fengyun-1c-debris", "lat": 70.41607288269529, "lon": 67.68852976265579, "alt_km": 814.8784773595235, "timestamp": "2025-12-03T13:52:09.834375+00:00", "meta": {"OBJECT_NAME": "FENGYUN 1C DEB", "OBJECT_ID": "1999-025KM", "EPOCH": "2025-12-03T05:34:07.216608", "MEAN_MOTION": 14.29401453, "ECCENTRICITY": 0.0052096, "INCLINATION": 98.9986, "RA_OF_ASC_NODE": 220.8822, "ARG_OF_PERICENTER": 329.6982, "MEAN_ANOMALY": 158.5799, "EPHEMERIS_TYPE": 0, "CLASSIFICATION_TYPE": "U", "NORAD_CAT_ID": 29963, "ELEMENT_SET_NO": 999, "REV_AT_EPOCH": 98007, "BSTAR": 0.0011085506, "MEAN_MOTION_DOT": 2.821e-05, "MEAN_MOTION_DDOT": 0}, "tle": {"line1": "1 29963U 99025KM  25337.23202797  .00002821  00000+0  11086-2 0  9996", "line2": "2 29963  98.9986 220.8822 0052096 329.6982 158.5799 14.29401453980076"}}, "geometry": {"type": "Point", "coordinates": [67.68852976265579, 70.41607288269529]}}, {"type": "Feature", "properties": {"norad_id": 29964, "name": "FENGYUN 1C DEB", "group": "fengyun-1c-debris", "lat": 19.6421686704496, "lon": 3.8266919418911227, "alt_km": 951.8796312714521, "timestamp": "2025-12-03T13:52:09.834386+00:00", "meta": {"OBJECT_NAME": "FENGYUN 1C DEB", "OBJECT_ID": "1999-025KN", "EPOCH": "2025-12-03T02:49:32.980512", "MEAN_MOTION": 14.02695985, "ECCENTRICITY": 0.01313266, "INCLINATION": 98.3721, "RA_OF_ASC_NODE": 180.3906, "ARG_OF_PERICENTER": 296.7886, "MEAN_ANOMALY": 61.9898, "EPHEMERIS_TYPE": 0, "CLASSIFICATION_TYPE": "U", "NORAD_CAT_ID": 29964, "ELEMENT_SET_NO": 999, "REV_AT_EPOCH": 96182, "BSTAR": 0.0011686851, "MEAN_MOTION_DOT": 1.907e-05, "MEAN_MOTION_DDOT": 0}, "tle": {"line1": "1 29964U 99025KN  25337.11774283  .00001907  00000+0  11687-2 0  9999", "line2": "2 29964  98.3721 180.3906 0131326 296.7886  61.9898 14.02695985961827"}}, "geometry": {"type": "Point", "coordinates": [3.8266919418911227, 19.6421686704496]}}, {"type": "Feature", "properties": {"norad_id": 29965, "name": "FENGYUN 1C DEB", "group": "fengyun-1c-debris", "lat": 38.16066437151098, "lon": 159.5794230335902, "alt_km": 833.6436366429361, "timestamp": "2025-12-03T13:52:09.834396+00:00", "meta": {"OBJECT_NAME": "FENGYUN 1C DEB", "OBJECT_ID": "1999-025KP", "EPOCH": "2025-12-02T23:43:34.315968", "MEAN_MOTION": 13.95765739, "ECCENTRICITY": 0.01461877, "INCLINATION": 98.9621, "RA_OF_ASC_NODE": 331.8828, "ARG_OF_PERICENTER": 94.6702, "MEAN_ANOMALY": 325.8154, "EPHEMERIS_TYPE": 0, "CLASSIFICATION_TYPE": "U", "NORAD_CAT_ID": 29965, "ELEMENT_SET_NO": 999, "REV_AT_EPOCH": 96140, "BSTAR": 0.0002206861, "MEAN_MOTION_DOT": 2.88e-06, "MEAN_MOTION_DDOT": 0}, "tle": {"line1": "1 29965U 99025KP  25336.98859162  .00000288  00000+0  22069-3 0  9992", "line2": "2 29965  98.9621 331.8828 0146187  94.6702 325.8154 13.95765739961409"}}, "geometry": {"type": "Point", "coordinates": [159.5794230335902, 38.16066437151098]}}, {"type": "Feature", "properties": {"norad_id": 29966, "name": "FENGYUN 1C DEB", "group": "fengyun-1c-debris", "lat": 73.92326687945659, "lon": 148.29780397272822, "alt_km": 787.0530063596707, "timestamp": "2025-12-03T13:52:09.834406+00:00", "meta": {"OBJECT_NAME": "FENGYUN 1C DEB", "OBJECT_ID": "1999-025KQ", "EPOCH": "2025-12-03T01:43:19.716672", "MEAN_MOTION": 14.25723503, "ECCENTRICITY": 0.00399272, "INCLINATION": 99.4919, "RA_OF_ASC_NODE": 183.2377, "ARG_OF_PERICENTER": 12.6945, "MEAN_ANOMALY": 347.5228, "EPHEMERIS_TYPE": 0, "CLASSIFICATION_TYPE": "U", "NORAD_CAT_ID": 29966, "ELEMENT_SET_NO": 999, "REV_AT_EPOCH": 97905, "BSTAR": 0.00049441166, "MEAN_MOTION_DOT": 1.132e-05, "MEAN_MOTION_DDOT": 0}, "tle": {"line1": "1 29966U 99025KQ  25337.07175598  .00001132  00000+0  49441-3 0  9990", "line2": "2 29966  99.4919 183.2377 0039927  12.6945 347.5228 14.25723503979056"}}, "geometry": {"type": "Point", "coordinates": [148.29780397272822, 73.92326687945659]}}, {"type": "Feature", "properties": {"norad_id": 29967, "name": "FENGYUN 1C DEB", "group": "fengyun-1c-debris", "lat": -35.52428696228255, "lon": 60.51215773410803, "alt_km": 765.772228773275, "timestamp": "2025-12-03T13:52:09.834417+00:00", "meta": {"OBJECT_NAME": "FENGYUN 1C DEB", "OBJECT_ID": "1999-025KR", "EPOCH": "2025-12-02T00:04:28.958016", "MEAN_MOTION": 14.23475675, "ECCENTRICITY": 0.00753802, "INCLINATION": 98.867, "RA_OF_ASC_NODE": 52.5267, "ARG_OF_PERICENTER": 323.9663, "MEAN_ANOMALY": 214.5788, "EPHEMERIS_TYPE": 0, "CLASSIFICATION_TYPE": "U", "NORAD_CAT_ID": 29967, "ELEMENT_SET_NO": 999, "REV_AT_EPOCH": 97069, "BSTAR": 0.0016186138, "MEAN_MOTION_DOT": 3.744e-05, "MEAN_MOTION_DDOT": 0}, "tle": {"line1": "1 29967U 99025KR  25336.00311294  .00003744  00000+0  16186-2 0  9998", "line2": "2 29967  98.8670  52.5267 0075380 323.9663 214.5788 14.23475675970695"}}, "geometry": {"type": "Point", "coordinates": [60.51215773410803, -35.52428696228255]}}, {"type": "Feature", "properties": {"norad_id": 29968, "name": "FENGYUN 1C DEB", "group": "fengyun-1c-debris", "lat": 61.895045032001235, "lon": -49.30637635590365, "alt_km": 814.3107048049687, "timestamp": "2025-12-03T13:52:09.834427+00:00", "meta": {"OBJECT_NAME": "FENGYUN 1C DEB", "OBJECT_ID": "1999-025KS", "EPOCH": "2025-12-02T22:28:01.356384", "MEAN_MOTION": 14.07243751, "ECCENTRICITY": 0.00905502, "INCLINATION": 98.804, "RA_OF_ASC_NODE": 326.9376, "ARG_OF_PERICENTER": 22.2702, "MEAN_ANOMALY": 30.855, "EPHEMERIS_TYPE": 0, "CLASSIFICATION_TYPE": "U", "NORAD_CAT_ID": 29968, "ELEMENT_SET_NO": 999, "REV_AT_EPOCH": 96911, "BSTAR": 0.00026778848, "MEAN_MOTION_DOT": 4.23e-06, "MEAN_MOTION_DDOT": 0}, "tle": {"line1": "1 29968U 99025KS  25336.93612681  .00000423  00000+0  26779-3 0  9996", "line2": "2 29968  98.8040 326.9376 0090550  22.2702  30.8550 14.07243751969116"}}, "geometry": {"type": "Point", "coordinates": [-49.30637635590365, 61.895045032001235]}}, {"type": "Feature", "properties": {"norad_id": 29969, "name": "FENGYUN 1C DEB", "group": "fengyun-1c-debris", "lat": -13.706225099544874, "lon": 63.926100714734076, "alt_km": 786.8973116507368, "timestamp": "2025-12-03T13:52:09.834438+00:00", "meta": {"OBJECT_NAME": "FENGYUN 1C DEB", "OBJECT_ID": "1999-025KT", "EPOCH": "2025-12-03T05:51:54.799200", "MEAN_MOTION": 14.33069655, "ECCENTRICITY": 0.00425453, "INCLINATION": 98.7726, "RA_OF_ASC_NODE": 61.4301, "ARG_OF_PERICENTER": 79.1485, "MEAN_ANOMALY": 347.9802, "EPHEMERIS_TYPE": 0, "CLASSIFICATION_TYPE": "U", "NORAD_CAT_ID": 29969, "ELEMENT_SET_NO": 999, "REV_AT_EPOCH": 97526, "BSTAR": 0.0024116286, "MEAN_MOTION_DOT": 6.637e-05, "MEAN_MOTION_DDOT": 0}, "tle": {"line1": "1 29969U 99025KT  25337.24438425  .00006637  00000+0  24116-2 0  9999", "line2": "2 29969  98.7726  61.4301 0042545  79.1485 347.9802 14.33069655975269"}}, "geometry": {"type": "Point", "coordinates": [63.926100714734076, -13.706225099544874]}}, {"type": "Feature", "properties": {"norad_id": 29970, "name": "FENGYUN 1C DEB", "group": "fengyun-1c-debris", "lat": -16.607795378675593, "lon": 82.9190727643126, "alt_km": 689.32918827303, "timestamp": "2025-12-03T13:52:09.834448+00:00", "meta": {"OBJECT_NAME": "FENGYUN 1C DEB", "OBJECT_ID": "1999-025KU", "EPOCH": "2025-12-03T08:32:40.605792", "MEAN_MOTION": 14.4390164, "ECCENTRICITY": 0.00903481, "INCLINATION": 98.8071, "RA_OF_ASC_NODE": 265.3399, "ARG_OF_PERICENTER": 215.7737, "MEAN_ANOMALY": 268.6377, "EPHEMERIS_TYPE": 0, "CLASSIFICATION_TYPE": "U", "NORAD_CAT_ID": 29970, "ELEMENT_SET_NO": 999, "REV_AT_EPOCH": 98985, "BSTAR": 0.0007268888, "MEAN_MOTION_DOT": 2.555e-05, "MEAN_MOTION_DDOT": 0}, "tle": {"line1": "1 29970U 99025KU  25337.35602553  .00002555  00000+0  72689-3 0  9992", "line2": "2 29970  98.8071 265.3399 0090348 215.7737 268.6377 14.43901640989855"}}, "geometry": {"type": "Point", "coordinates": [82.9190727643126, -16.607795378675593]}}, {"type": "Feature", "properties": {"norad_id": 29971, "name": "FENGYUN 1C DEB", "group": "fengyun-1c-debris", "lat": -54.24549893584887, "lon": 29.802427770798033, "alt_km": 844.7871366629524, "timestamp": "2025-12-03T13:52:09.834458+00:00", "meta": {"OBJECT_NAME": "FENGYUN 1C DEB", "OBJECT_ID": "1999-025KV", "EPOCH": "2025-12-03T02:23:58.443072", "MEAN_MOTION": 14.18126194, "ECCENTRICITY": 0.0023507, "INCLINATION": 98.6847, "RA_OF_ASC_NODE": 17.0789, "ARG_OF_PERICENTER": 194.9761, "MEAN_ANOMALY": 191.1865, "EPHEMERIS_TYPE": 0, "CLASSIFICATION_TYPE": "U", "NORAD_CAT_ID": 29971, "ELEMENT_SET_NO": 999, "REV_AT_EPOCH": 97203, "BSTAR": 0.00111604, "MEAN_MOTION_DOT": 2.254e-05, "MEAN_MOTION_DDOT": 0}, "tle": {"line1": "1 29971U 99025KV  25337.09998198  .00002254  00000+0  11160-2 0  9999", "line2": "2 29971  98.6847  17.0789 0023507 194.9761 191.1865 14.18126194972037"}}, "geometry": {"type": "Point", "coordinates": [29.802427770798033, -54.24549893584887]}}, {"type": "Feature", "properties": {"norad_id": 29972, "name": "FENGYUN 1C DEB", "group": "fengyun-1c-debris", "lat": -36.92277463678531, "lon": -4.327659767847282, "alt_km": 669.6588612293517, "timestamp": "2025-12-03T13:52:09.834469+00:00", "meta": {"OBJECT_NAME": "FENGYUN 1C DEB", "OBJECT_ID": "1999-025KW", "EPOCH": "2025-12-02T12:24:19.943136", "MEAN_MOTION": 14.66116558, "ECCENTRICITY": 0.00657001, "INCLINATION": 98.9219, "RA_OF_ASC_NODE": 347.7409, "ARG_OF_PERICENTER": 43.6735, "MEAN_ANOMALY": 83.0009, "EPHEMERIS_TYPE": 0, "CLASSIFICATION_TYPE": "U", "NORAD_CAT_ID": 29972, "ELEMENT_SET_NO": 999, "REV_AT_EPOCH": 99336, "BSTAR": 0.0014720501, "MEAN_MOTION_DOT": 8.299e-05, "MEAN_MOTION_DDOT": 0}, "tle": {"line1": "1 29972U 99025KW  25336.51689749  .00008299  00000+0  14721-2 0  9996", "line2": "2 29972  98.9219 347.7409 0065700  43.6735  83.0009 14.66116558993362"}}, "geometry": {"type": "Point", "coordinates": [-4.327659767847282, -36.92277463678531]}}]}